<?xml version="1.0" encoding="UTF-8"?>
<ndm xmlns:xsi="http://www.w3.org/2001/XMLSchema-instance" xsi:noNamespaceSchemaLocation="https://sanaregistry.org/r/ndmxml_unqualified/ndmxml-2.0.0-master-2.0.xsd">
<omm id="CCSDS_OMM_VERS" version="2.0">
<header><CREATION_DATE/><ORIGINATOR/></header><body><segment><metadata><OBJECT_NAME>KUIPER-00035</OBJECT_NAME><OBJECT_ID>2025-088AA</OBJECT_ID><CENTER_NAME>EARTH</CENTER_NAME><REF_FRAME>TEME</REF_FRAME><TIME_SYSTEM>UTC</TIME_SYSTEM><MEAN_ELEMENT_THEORY>SGP4</MEAN_ELEMENT_THEORY></metadata><data><meanElements><EPOCH>2025-09-01T11:43:50.998944</EPOCH><MEAN_MOTION>14.79946134</MEAN_MOTION><ECCENTRICITY>.00055869</ECCENTRICITY><INCLINATION>51.9008</INCLINATION><RA_OF_ASC_NODE>230.7435</RA_OF_ASC_NODE><ARG_OF_PERICENTER>166.7179</ARG_OF_PERICENTER><MEAN_ANOMALY>193.3931</MEAN_ANOMALY></meanElements><tleParameters><EPHEMERIS_TYPE>0</EPHEMERIS_TYPE><CLASSIFICATION_TYPE>U</CLASSIFICATION_TYPE><NORAD_CAT_ID>63748</NORAD_CAT_ID><ELEMENT_SET_NO>999</ELEMENT_SET_NO><REV_AT_EPOCH>1949</REV_AT_EPOCH><BSTAR>.3740606E-3</BSTAR><MEAN_MOTION_DOT>.2632E-4</MEAN_MOTION_DOT><MEAN_MOTION_DDOT>0</MEAN_MOTION_DDOT></tleParameters></data></segment></body></omm>
<omm id="CCSDS_OMM_VERS" version="2.0">
<header><CREATION_DATE/><ORIGINATOR/></header><body><segment><metadata><OBJECT_NAME>KUIPER-00037</OBJECT_NAME><OBJECT_ID>2025-088AB</OBJECT_ID><CENTER_NAME>EARTH</CENTER_NAME><REF_FRAME>TEME</REF_FRAME><TIME_SYSTEM>UTC</TIME_SYSTEM><MEAN_ELEMENT_THEORY>SGP4</MEAN_ELEMENT_THEORY></metadata><data><meanElements><EPOCH>2025-09-01T08:31:41.787264</EPOCH><MEAN_MOTION>14.79975320</MEAN_MOTION><ECCENTRICITY>.00069382</ECCENTRICITY><INCLINATION>51.8980</INCLINATION><RA_OF_ASC_NODE>230.2989</RA_OF_ASC_NODE><ARG_OF_PERICENTER>108.7163</ARG_OF_PERICENTER><MEAN_ANOMALY>251.4553</MEAN_ANOMALY></meanElements><tleParameters><EPHEMERIS_TYPE>0</EPHEMERIS_TYPE><CLASSIFICATION_TYPE>U</CLASSIFICATION_TYPE><NORAD_CAT_ID>63749</NORAD_CAT_ID><ELEMENT_SET_NO>999</ELEMENT_SET_NO><REV_AT_EPOCH>2027</REV_AT_EPOCH><BSTAR>.60964325E-3</BSTAR><MEAN_MOTION_DOT>.4434E-4</MEAN_MOTION_DOT><MEAN_MOTION_DDOT>0</MEAN_MOTION_DDOT></tleParameters></data></segment></body></omm>
<omm id="CCSDS_OMM_VERS" version="2.0">
<header><CREATION_DATE/><ORIGINATOR/></header><body><segment><metadata><OBJECT_NAME>KUIPER-00038</OBJECT_NAME><OBJECT_ID>2025-088AC</OBJECT_ID><CENTER_NAME>EARTH</CENTER_NAME><REF_FRAME>TEME</REF_FRAME><TIME_SYSTEM>UTC</TIME_SYSTEM><MEAN_ELEMENT_THEORY>SGP4</MEAN_ELEMENT_THEORY></metadata><data><meanElements><EPOCH>2025-09-01T14:00:01.999872</EPOCH><MEAN_MOTION>14.98496059</MEAN_MOTION><ECCENTRICITY>.00055733</ECCENTRICITY><INCLINATION>51.8903</INCLINATION><RA_OF_ASC_NODE>215.0683</RA_OF_ASC_NODE><ARG_OF_PERICENTER>165.6271</ARG_OF_PERICENTER><MEAN_ANOMALY>222.0273</MEAN_ANOMALY></meanElements><tleParameters><EPHEMERIS_TYPE>0</EPHEMERIS_TYPE><CLASSIFICATION_TYPE>U</CLASSIFICATION_TYPE><NORAD_CAT_ID>63750</NORAD_CAT_ID><ELEMENT_SET_NO>999</ELEMENT_SET_NO><REV_AT_EPOCH>488</REV_AT_EPOCH><BSTAR>-.21487284E-2</BSTAR><MEAN_MOTION_DOT>-.26154E-3</MEAN_MOTION_DOT><MEAN_MOTION_DDOT>0</MEAN_MOTION_DDOT></tleParameters></data></segment></body></omm>
<omm id="CCSDS_OMM_VERS" version="2.0">
<header><CREATION_DATE/><ORIGINATOR/></header><body><segment><metadata><OBJECT_NAME>KUIPER-00039</OBJECT_NAME><OBJECT_ID>2025-134A</OBJECT_ID><CENTER_NAME>EARTH</CENTER_NAME><REF_FRAME>TEME</REF_FRAME><TIME_SYSTEM>UTC</TIME_SYSTEM><MEAN_ELEMENT_THEORY>SGP4</MEAN_ELEMENT_THEORY></metadata><data><meanElements><EPOCH>2025-09-01T14:00:01.999872</EPOCH><MEAN_MOTION>15.20140135</MEAN_MOTION><ECCENTRICITY>.00103445</ECCENTRICITY><INCLINATION>51.8798</INCLINATION><RA_OF_ASC_NODE>353.7926</RA_OF_ASC_NODE><ARG_OF_PERICENTER>20.4270</ARG_OF_PERICENTER><MEAN_ANOMALY>49.4157</MEAN_ANOMALY></meanElements><tleParameters><EPHEMERIS_TYPE>0</EPHEMERIS_TYPE><CLASSIFICATION_TYPE>U</CLASSIFICATION_TYPE><NORAD_CAT_ID>64500</NORAD_CAT_ID><ELEMENT_SET_NO>999</ELEMENT_SET_NO><REV_AT_EPOCH>462</REV_AT_EPOCH><BSTAR>.22856009E-3</BSTAR><MEAN_MOTION_DOT>.469E-4</MEAN_MOTION_DOT><MEAN_MOTION_DDOT>0</MEAN_MOTION_DDOT></tleParameters></data></segment></body></omm>
<omm id="CCSDS_OMM_VERS" version="2.0">
<header><CREATION_DATE/><ORIGINATOR/></header><body><segment><metadata><OBJECT_NAME>KUIPER-00040</OBJECT_NAME><OBJECT_ID>2025-134B</OBJECT_ID><CENTER_NAME>EARTH</CENTER_NAME><REF_FRAME>TEME</REF_FRAME><TIME_SYSTEM>UTC</TIME_SYSTEM><MEAN_ELEMENT_THEORY>SGP4</MEAN_ELEMENT_THEORY></metadata><data><meanElements><EPOCH>2025-09-01T14:00:01.999872</EPOCH><MEAN_MOTION>14.87176280</MEAN_MOTION><ECCENTRICITY>.00169708</ECCENTRICITY><INCLINATION>51.8948</INCLINATION><RA_OF_ASC_NODE>0.6875</RA_OF_ASC_NODE><ARG_OF_PERICENTER>6.4740</ARG_OF_PERICENTER><MEAN_ANOMALY>164.6513</MEAN_ANOMALY></meanElements><tleParameters><EPHEMERIS_TYPE>0</EPHEMERIS_TYPE><CLASSIFICATION_TYPE>U</CLASSIFICATION_TYPE><NORAD_CAT_ID>64501</NORAD_CAT_ID><ELEMENT_SET_NO>999</ELEMENT_SET_NO><REV_AT_EPOCH>536</REV_AT_EPOCH><BSTAR>-.58765974E-2</BSTAR><MEAN_MOTION_DOT>-.53355E-3</MEAN_MOTION_DOT><MEAN_MOTION_DDOT>0</MEAN_MOTION_DDOT></tleParameters></data></segment></body></omm>
<omm id="CCSDS_OMM_VERS" version="2.0">
<header><CREATION_DATE/><ORIGINATOR/></header><body><segment><metadata><OBJECT_NAME>KUIPER-00041</OBJECT_NAME><OBJECT_ID>2025-134C</OBJECT_ID><CENTER_NAME>EARTH</CENTER_NAME><REF_FRAME>TEME</REF_FRAME><TIME_SYSTEM>UTC</TIME_SYSTEM><MEAN_ELEMENT_THEORY>SGP4</MEAN_ELEMENT_THEORY></metadata><data><meanElements><EPOCH>2025-09-01T14:00:01.999872</EPOCH><MEAN_MOTION>14.83540853</MEAN_MOTION><ECCENTRICITY>.00139729</ECCENTRICITY><INCLINATION>51.8974</INCLINATION><RA_OF_ASC_NODE>1.8799</RA_OF_ASC_NODE><ARG_OF_PERICENTER>5.3468</ARG_OF_PERICENTER><MEAN_ANOMALY>248.0904</MEAN_ANOMALY></meanElements><tleParameters><EPHEMERIS_TYPE>0</EPHEMERIS_TYPE><CLASSIFICATION_TYPE>U</CLASSIFICATION_TYPE><NORAD_CAT_ID>64502</NORAD_CAT_ID><ELEMENT_SET_NO>999</ELEMENT_SET_NO><REV_AT_EPOCH>477</REV_AT_EPOCH><BSTAR>-.13870546E-2</BSTAR><MEAN_MOTION_DOT>-.11763E-3</MEAN_MOTION_DOT><MEAN_MOTION_DDOT>0</MEAN_MOTION_DDOT></tleParameters></data></segment></body></omm>
<omm id="CCSDS_OMM_VERS" version="2.0">
<header><CREATION_DATE/><ORIGINATOR/></header><body><segment><metadata><OBJECT_NAME>KUIPER-00042</OBJECT_NAME><OBJECT_ID>2025-134D</OBJECT_ID><CENTER_NAME>EARTH</CENTER_NAME><REF_FRAME>TEME</REF_FRAME><TIME_SYSTEM>UTC</TIME_SYSTEM><MEAN_ELEMENT_THEORY>SGP4</MEAN_ELEMENT_THEORY></metadata><data><meanElements><EPOCH>2025-09-01T14:00:01.999872</EPOCH><MEAN_MOTION>14.95927773</MEAN_MOTION><ECCENTRICITY>.00136154</ECCENTRICITY><INCLINATION>51.8904</INCLINATION><RA_OF_ASC_NODE>358.5072</RA_OF_ASC_NODE><ARG_OF_PERICENTER>11.3539</ARG_OF_PERICENTER><MEAN_ANOMALY>246.1797</MEAN_ANOMALY></meanElements><tleParameters><EPHEMERIS_TYPE>0</EPHEMERIS_TYPE><CLASSIFICATION_TYPE>U</CLASSIFICATION_TYPE><NORAD_CAT_ID>64503</NORAD_CAT_ID><ELEMENT_SET_NO>999</ELEMENT_SET_NO><REV_AT_EPOCH>301</REV_AT_EPOCH><BSTAR>-.7233882E-1</BSTAR><MEAN_MOTION_DOT>-.767933E-2</MEAN_MOTION_DOT><MEAN_MOTION_DDOT>0</MEAN_MOTION_DDOT></tleParameters></data></segment></body></omm>
<omm id="CCSDS_OMM_VERS" version="2.0">
<header><CREATION_DATE/><ORIGINATOR/></header><body><segment><metadata><OBJECT_NAME>KUIPER-00043</OBJECT_NAME><OBJECT_ID>2025-134E</OBJECT_ID><CENTER_NAME>EARTH</CENTER_NAME><REF_FRAME>TEME</REF_FRAME><TIME_SYSTEM>UTC</TIME_SYSTEM><MEAN_ELEMENT_THEORY>SGP4</MEAN_ELEMENT_THEORY></metadata><data><meanElements><EPOCH>2025-09-01T14:00:01.999872</EPOCH><MEAN_MOTION>15.18128694</MEAN_MOTION><ECCENTRICITY>.00076019</ECCENTRICITY><INCLINATION>51.8845</INCLINATION><RA_OF_ASC_NODE>354.5599</RA_OF_ASC_NODE><ARG_OF_PERICENTER>10.2946</ARG_OF_PERICENTER><MEAN_ANOMALY>79.5569</MEAN_ANOMALY></meanElements><tleParameters><EPHEMERIS_TYPE>0</EPHEMERIS_TYPE><CLASSIFICATION_TYPE>U</CLASSIFICATION_TYPE><NORAD_CAT_ID>64504</NORAD_CAT_ID><ELEMENT_SET_NO>999</ELEMENT_SET_NO><REV_AT_EPOCH>522</REV_AT_EPOCH><BSTAR>-.24797519E-1</BSTAR><MEAN_MOTION_DOT>-.481089E-2</MEAN_MOTION_DOT><MEAN_MOTION_DDOT>0</MEAN_MOTION_DDOT></tleParameters></data></segment></body></omm>

</ndm>
