KUIPER-00035            
1 63748U 25088AA  25244.48878471  .00002632  00000+0  37406-3 0  9990
2 63748  51.9008 230.7435 0005586 166.7179 193.3931 14.79946134 19498
KUIPER-00037            
1 63749U 25088AB  25244.35534476  .00004434  00000+0  60964-3 0  9998
2 63749  51.8980 230.2989 0006938 108.7163 251.4553 14.79975320 20270
KUIPER-00038            
1 63750U 25088AC  25244.58335648 -.00026154  00000+0 -21487-2 0  9996
2 63750  51.8903 215.0683 0005573 165.6271 222.0273 14.98496059  4885
KUIPER-00039            
1 64500U 25134A   25244.58335648  .00004690  00000+0  22856-3 0  9993
2 64500  51.8798 353.7926 0010344  20.4270  49.4157 15.20140135  4621
KUIPER-00040            
1 64501U 25134B   25244.58335648 -.00053355  00000+0 -58766-2 0  9996
2 64501  51.8948   0.6875 0016970   6.4740 164.6513 14.87176280  5367
KUIPER-00041            
1 64502U 25134C   25244.58335648 -.00011763  00000+0 -13871-2 0  9992
2 64502  51.8974   1.8799 0013972   5.3468 248.0904 14.83540853  4771
KUIPER-00042            
1 64503U 25134D   25244.58335648 -.00767933  00000+0 -72339-1 0  9993
2 64503  51.8904 358.5072 0013615  11.3539 246.1797 14.95927773  3019
KUIPER-00043            
1 64504U 25134E   25244.58335648 -.00481089  00000+0 -24798-1 0  9995
2 64504  51.8845 354.5599 0007601  10.2946  79.5569 15.18128694  5223
